{"type": "FeatureCollection", "features": [ {"type": "Feature", "properties": {"norad_id": 37550, "name": "IRIDIUM 33 DEB", "group": "iridium-33-debris", "lat": -14.487679427977618, "lon": 19.85025997972486, "alt_km": 675.794343244017, "timestamp": "2025-12-19T16:54:44.648123+00:00", "meta": {"OBJECT_NAME": "IRIDIUM 33 DEB", "OBJECT_ID": "1997-051XK", "EPOCH": "2025-12-18T19:42:03.261312", "MEAN_MOTION": 14.67287716, "ECCENTRICITY": 0.00056474, "INCLINATION": 86.3773, "RA_OF_ASC_NODE": 21.1799, "ARG_OF_PERICENTER": 97.8701, "MEAN_ANOMALY": 262.3155, "EPHEMERIS_TYPE": 0, "CLASSIFICATION_TYPE": "U", "NORAD_CAT_ID": 37550, "ELEMENT_SET_NO": 999, "REV_AT_EPOCH": 86422, "BSTAR": 0.00091274276, "MEAN_MOTION_DOT": 5.169e-05, "MEAN_MOTION_DDOT": 0}, "tle": {"line1": "1 37550U 97051XK  25352.82087108  .00005169  00000+0  91274-3 0  9999", "line2": "2 37550  86.3773  21.1799 0005647  97.8701 262.3155 14.67287716864224"}}, "geometry": {"type": "Point", "coordinates": [19.85025997972486, -14.487679427977618]}}, {"type": "Feature", "properties": {"norad_id": 37562, "name": "IRIDIUM 33 DEB", "group": "iridium-33-debris", "lat": -74.5638320800412, "lon": 27.289568143482033, "alt_km": 729.6004283211314, "timestamp": "2025-12-19T16:54:44.648133+00:00", "meta": {"OBJECT_NAME": "IRIDIUM 33 DEB", "OBJECT_ID": "1997-051XX", "EPOCH": "2025-12-17T21:32:59.557056", "MEAN_MOTION": 14.56520214, "ECCENTRICITY": 0.00266504, "INCLINATION": 86.3744, "RA_OF_ASC_NODE": 41.3522, "ARG_OF_PERICENTER": 91.7117, "MEAN_ANOMALY": 85.7489, "EPHEMERIS_TYPE": 0, "CLASSIFICATION_TYPE": "U", "NORAD_CAT_ID": 37562, "ELEMENT_SET_NO": 999, "REV_AT_EPOCH": 86403, "BSTAR": 0.00077741138, "MEAN_MOTION_DOT": 3.496e-05, "MEAN_MOTION_DDOT": 0}, "tle": {"line1": "1 37562U 97051XX  25351.89791154  .00003496  00000+0  77741-3 0  9995", "line2": "2 37562  86.3744  41.3522 0026650  91.7117  85.7489 14.56520214864031"}}, "geometry": {"type": "Point", "coordinates": [27.289568143482033, -74.5638320800412]}}, {"type": "Feature", "properties": {"norad_id": 37565, "name": "IRIDIUM 33 DEB", "group": "iridium-33-debris", "lat": -58.72342488301681, "lon": 0.5115383664934999, "alt_km": 733.527067795434, "timestamp": "2025-12-19T16:54:44.648144+00:00", "meta": {"OBJECT_NAME": "IRIDIUM 33 DEB", "OBJECT_ID": "1997-051YA", "EPOCH": "2025-12-18T18:01:14.918304", "MEAN_MOTION": 14.5154101, "ECCENTRICITY": 0.00150095, "INCLINATION": 86.3492, "RA_OF_ASC_NODE": 6.9602, "ARG_OF_PERICENTER": 66.8058, "MEAN_ANOMALY": 293.4726, "EPHEMERIS_TYPE": 0, "CLASSIFICATION_TYPE": "U", "NORAD_CAT_ID": 37565, "ELEMENT_SET_NO": 999, "REV_AT_EPOCH": 65924, "BSTAR": 0.00039383298, "MEAN_MOTION_DOT": 1.597e-05, "MEAN_MOTION_DDOT": 0}, "tle": {"line1": "1 37565U 97051YA  25352.75086711  .00001597  00000+0  39383-3 0  9990", "line2": "2 37565  86.3492   6.9602 0015009  66.8058 293.4726 14.51541010659242"}}, "geometry": {"type": "Point", "coordinates": [0.5115383664934999, -58.72342488301681]}}, {"type": "Feature", "properties": {"norad_id": 38017, "name": "IRIDIUM 33 DEB", "group": "iridium-33-debris", "lat": -31.519462312794374, "lon": 160.95070627089598, "alt_km": 757.4028958442841, "timestamp": "2025-12-19T16:54:44.648154+00:00", "meta": {"OBJECT_NAME": "IRIDIUM 33 DEB", "OBJECT_ID": "1997-051YD", "EPOCH": "2025-12-18T04:36:04.603680", "MEAN_MOTION": 14.49190685, "ECCENTRICITY": 0.00919647, "INCLINATION": 86.3412, "RA_OF_ASC_NODE": 163.8576, "ARG_OF_PERICENTER": 84.7873, "MEAN_ANOMALY": 276.3818, "EPHEMERIS_TYPE": 0, "CLASSIFICATION_TYPE": "U", "NORAD_CAT_ID": 38017, "ELEMENT_SET_NO": 999, "REV_AT_EPOCH": 61481, "BSTAR": 0.0038247823, "MEAN_MOTION_DOT": 0.00015406, "MEAN_MOTION_DDOT": 0}, "tle": {"line1": "1 38017U 97051YD  25352.19171995  .00015406  00000+0  38248-2 0  9992", "line2": "2 38017  86.3412 163.8576 0091964  84.7873 276.3818 14.49190685614819"}}, "geometry": {"type": "Point", "coordinates": [160.95070627089598, -31.519462312794374]}}, {"type": "Feature", "properties": {"norad_id": 38022, "name": "IRIDIUM 33 DEB", "group": "iridium-33-debris", "lat": -84.47922518493371, "lon": -29.0749375183023, "alt_km": 774.921078252225, "timestamp": "2025-12-19T16:54:44.648165+00:00", "meta": {"OBJECT_NAME": "IRIDIUM 33 DEB", "OBJECT_ID": "1997-051YJ", "EPOCH": "2025-12-16T19:19:39.728352", "MEAN_MOTION": 14.41275031, "ECCENTRICITY": 0.00461893, "INCLINATION": 86.2686, "RA_OF_ASC_NODE": 14.6628, "ARG_OF_PERICENTER": 37.5381, "MEAN_ANOMALY": 322.9028, "EPHEMERIS_TYPE": 0, "CLASSIFICATION_TYPE": "U", "NORAD_CAT_ID": 38022, "ELEMENT_SET_NO": 999, "REV_AT_EPOCH": 69252, "BSTAR": 0.00076326479, "MEAN_MOTION_DOT": 2.517e-05, "MEAN_MOTION_DDOT": 0}, "tle": {"line1": "1 38022U 97051YJ  25350.80532093  .00002517  00000+0  76326-3 0  9993", "line2": "2 38022  86.2686  14.6628 0046189  37.5381 322.9028 14.41275031692523"}}, "geometry": {"type": "Point", "coordinates": [-29.0749375183023, -84.47922518493371]}}, {"type": "Feature", "properties": {"norad_id": 38028, "name": "IRIDIUM 33 DEB", "group": "iridium-33-debris", "lat": -1.613783697240354, "lon": 177.34522899679433, "alt_km": 738.4887212032709, "timestamp": "2025-12-19T16:54:44.648175+00:00", "meta": {"OBJECT_NAME": "IRIDIUM 33 DEB", "OBJECT_ID": "1997-051YQ", "EPOCH": "2025-12-19T06:06:55.314432", "MEAN_MOTION": 14.46188106, "ECCENTRICITY": 0.00304675, "INCLINATION": 86.3253, "RA_OF_ASC_NODE": 357.437, "ARG_OF_PERICENTER": 100.5317, "MEAN_ANOMALY": 259.932, "EPHEMERIS_TYPE": 0, "CLASSIFICATION_TYPE": "U", "NORAD_CAT_ID": 38028, "ELEMENT_SET_NO": 999, "REV_AT_EPOCH": 65589, "BSTAR": 0.00016949763, "MEAN_MOTION_DOT": 6.3e-06, "MEAN_MOTION_DDOT": 0}, "tle": {"line1": "1 38028U 97051YQ  25353.25480688  .00000630  00000+0  16950-3 0  9994", "line2": "2 38028  86.3253 357.4370 0030467 100.5317 259.9320 14.46188106655898"}}, "geometry": {"type": "Point", "coordinates": [177.34522899679433, -1.613783697240354]}}, {"type": "Feature", "properties": {"norad_id": 38228, "name": "IRIDIUM 33 DEB", "group": "iridium-33-debris", "lat": 1.3968346140135752, "lon": 45.60000079308011, "alt_km": 848.6048149446215, "timestamp": "2025-12-19T16:54:44.648186+00:00", "meta": {"OBJECT_NAME": "IRIDIUM 33 DEB", "OBJECT_ID": "1997-051ZC", "EPOCH": "2025-12-15T22:37:05.354976", "MEAN_MOTION": 14.27271769, "ECCENTRICITY": 0.00646384, "INCLINATION": 86.2946, "RA_OF_ASC_NODE": 47.1084, "ARG_OF_PERICENTER": 179.0762, "MEAN_ANOMALY": 303.5549, "EPHEMERIS_TYPE": 0, "CLASSIFICATION_TYPE": "U", "NORAD_CAT_ID": 38228, "ELEMENT_SET_NO": 999, "REV_AT_EPOCH": 84827, "BSTAR": 0.00027707855, "MEAN_MOTION_DOT": 7.12e-06, "MEAN_MOTION_DDOT": 0}, "tle": {"line1": "1 38228U 97051ZC  25349.94242309  .00000712  00000+0  27708-3 0  9997", "line2": "2 38228  86.2946  47.1084 0064638 179.0762 303.5549 14.27271769848277"}}, "geometry": {"type": "Point", "coordinates": [45.60000079308011, 1.3968346140135752]}}, {"type": "Feature", "properties": {"norad_id": 38241, "name": "IRIDIUM 33 DEB", "group": "iridium-33-debris", "lat": -74.35020647672583, "lon": -179.2002045675302, "alt_km": 720.6669771278785, "timestamp": "2025-12-19T16:54:44.648196+00:00", "meta": {"OBJECT_NAME": "IRIDIUM 33 DEB", "OBJECT_ID": "1997-051ZR", "EPOCH": "2025-12-18T18:17:11.654016", "MEAN_MOTION": 14.54903336, "ECCENTRICITY": 0.00053297, "INCLINATION": 86.3221, "RA_OF_ASC_NODE": 347.9418, "ARG_OF_PERICENTER": 59.8994, "MEAN_ANOMALY": 300.274, "EPHEMERIS_TYPE": 0, "CLASSIFICATION_TYPE": "U", "NORAD_CAT_ID": 38241, "ELEMENT_SET_NO": 999, "REV_AT_EPOCH": 60288, "BSTAR": 0.0005578999, "MEAN_MOTION_DOT": 2.417e-05, "MEAN_MOTION_DDOT": 0}, "tle": {"line1": "1 38241U 97051ZR  25352.76194044  .00002417  00000+0  55790-3 0  9994", "line2": "2 38241  86.3221 347.9418 0005329  59.8994 300.2740 14.54903336602889"}}, "geometry": {"type": "Point", "coordinates": [-179.2002045675302, -74.35020647672583]}}, {"type": "Feature", "properties": {"norad_id": 38474, "name": "IRIDIUM 33 DEB", "group": "iridium-33-debris", "lat": -76.5282901735602, "lon": -8.422881621905265, "alt_km": 746.6449709308981, "timestamp": "2025-12-19T16:54:44.648207+00:00", "meta": {"OBJECT_NAME": "IRIDIUM 33 DEB", "OBJECT_ID": "1997-051AAB", "EPOCH": "2025-12-19T07:20:05.895456", "MEAN_MOTION": 14.50712379, "ECCENTRICITY": 0.00278165, "INCLINATION": 86.3489, "RA_OF_ASC_NODE": 7.2093, "ARG_OF_PERICENTER": 68.0282, "MEAN_ANOMALY": 292.3875, "EPHEMERIS_TYPE": 0, "CLASSIFICATION_TYPE": "U", "NORAD_CAT_ID": 38474, "ELEMENT_SET_NO": 999, "REV_AT_EPOCH": 65413, "BSTAR": 0.00035872235, "MEAN_MOTION_DOT": 1.437e-05, "MEAN_MOTION_DDOT": 0}, "tle": {"line1": "1 38474U 97051AAB 25353.30562379  .00001437  00000+0  35872-3 0  9993", "line2": "2 38474  86.3489   7.2093 0027816  68.0282 292.3875 14.50712379654131"}}, "geometry": {"type": "Point", "coordinates": [-8.422881621905265, -76.5282901735602]}}, {"type": "Feature", "properties": {"norad_id": 39777, "name": "IRIDIUM 33 DEB", "group": "iridium-33-debris", "lat": 64.9427249215699, "lon": -17.026616208678497, "alt_km": 669.5518893798517, "timestamp": "2025-12-19T16:54:44.648217+00:00", "meta": {"OBJECT_NAME": "IRIDIUM 33 DEB", "OBJECT_ID": "1997-051AAJ", "EPOCH": "2025-12-17T11:37:29.440128", "MEAN_MOTION": 14.56536598, "ECCENTRICITY": 0.00601884, "INCLINATION": 85.9622, "RA_OF_ASC_NODE": 172.7412, "ARG_OF_PERICENTER": 170.5587, "MEAN_ANOMALY": 189.6768, "EPHEMERIS_TYPE": 0, "CLASSIFICATION_TYPE": "U", "NORAD_CAT_ID": 39777, "ELEMENT_SET_NO": 999, "REV_AT_EPOCH": 60254, "BSTAR": 0.0020288102, "MEAN_MOTION_DOT": 9.279e-05, "MEAN_MOTION_DDOT": 0}, "tle": {"line1": "1 39777U 97051AAJ 25351.48436852  .00009279  00000+0  20288-2 0  9999", "line2": "2 39777  85.9622 172.7412 0060188 170.5587 189.6768 14.56536598602541"}}, "geometry": {"type": "Point", "coordinates": [-17.026616208678497, 64.9427249215699]}}]}